{
  "type": "FeatureCollection",
  "features": [
    {
      "type": "Feature",
      "properties": {
        "id": 1,
        "kmlName": "D. 1 - NORTH EAST BRIDGE",
        "name": "North Eastbridge & Bluff Lake",
        "color": "#9CB03C",
        "neighborhoods": [
          "North Eastbridge",
          "Bluff Lake"
        ],
        "delegate": "Don Cloutier",
        "open": false,
        "blurb": "Far-east Central Park around F-15 and Bluff Lake, including the Aurora edge.",
        "source": "LOAD THIS EXACTLY.kmz",
        "labelLat": 39.761338550000005,
        "labelLng": -104.87108848863159
      },
      "geometry": {
        "type": "Polygon",
        "coordinates": [
          [
            [
              -104.8538817,
              39.7532384
            ],
            [
              -104.8467728,
              39.7532144
            ],
            [
              -104.8467728,
              39.7548146
            ],
            [
              -104.8492833,
              39.7549301
            ],
            [
              -104.8510858,
              39.755557
            ],
            [
              -104.8532959,
              39.7566951
            ],
            [
              -104.8549267,
              39.7574045
            ],
            [
              -104.8558172,
              39.7578004
            ],
            [
              -104.8563912,
              39.7578829
            ],
            [
              -104.8569652,
              39.7578334
            ],
            [
              -104.8588749,
              39.7577097
            ],
            [
              -104.8598083,
              39.7576808
            ],
            [
              -104.8604843,
              39.7577839
            ],
            [
              -104.8614284,
              39.7579983
            ],
            [
              -104.8623296,
              39.7584437
            ],
            [
              -104.8638746,
              39.7595654
            ],
            [
              -104.8650333,
              39.7601757
            ],
            [
              -104.8653766,
              39.7604231
            ],
            [
              -104.8656555,
              39.7610004
            ],
            [
              -104.8657199,
              39.7616767
            ],
            [
              -104.8659568,
              39.7684877
            ],
            [
              -104.8767277,
              39.7692639
            ],
            [
              -104.8764548,
              39.7601925
            ],
            [
              -104.8761804,
              39.7599989
            ],
            [
              -104.8701052,
              39.7599659
            ],
            [
              -104.8693622,
              39.7596732
            ],
            [
              -104.8683966,
              39.7589432
            ],
            [
              -104.864494,
              39.7588711
            ],
            [
              -104.8644925,
              39.7547974
            ],
            [
              -104.853871,
              39.7548633
            ],
            [
              -104.8538817,
              39.7532384
            ]
          ]
        ]
      }
    },
    {
      "type": "Feature",
      "properties": {
        "id": 2,
        "kmlName": "D. 2 - EAST 29TH AVE.",
        "name": "East 29th Avenue",
        "color": "#4FBF55",
        "neighborhoods": [
          "East 29th Avenue",
          "29th Ave Town Center",
          "Founders Green"
        ],
        "delegate": "Matt Quinn",
        "open": false,
        "blurb": "Original town center: Founders Green, Aviator Pool, and 29th Avenue shops.",
        "source": "LOAD THIS EXACTLY.kmz",
        "labelLat": 39.7563266,
        "labelLng": -104.89493908045503
      },
      "geometry": {
        "type": "Polygon",
        "coordinates": [
          [
            [
              -104.8865013,
              39.7542213
            ],
            [
              -104.8864154,
              39.7580814
            ],
            [
              -104.8984425,
              39.7581144
            ],
            [
              -104.8989199,
              39.7583618
            ],
            [
              -104.9006258,
              39.7584113
            ],
            [
              -104.9006097,
              39.7593309
            ],
            [
              -104.9035118,
              39.7593392
            ],
            [
              -104.9033724,
              39.7545718
            ],
            [
              -104.9006526,
              39.754543
            ],
            [
              -104.9005507,
              39.7535243
            ],
            [
              -104.8999767,
              39.7528809
            ],
            [
              -104.8989789,
              39.7524396
            ],
            [
              -104.8965756,
              39.7523984
            ],
            [
              -104.895374,
              39.7528521
            ],
            [
              -104.8940544,
              39.753648
            ],
            [
              -104.8934053,
              39.7540728
            ],
            [
              -104.8922036,
              39.7543244
            ],
            [
              -104.8865013,
              39.7542213
            ]
          ]
        ]
      }
    },
    {
      "type": "Feature",
      "properties": {
        "id": 3,
        "kmlName": "D. 3 - WESTERLY CREEK",
        "name": "Westerly Creek",
        "color": "#E14AA6",
        "neighborhoods": [
          "Westerly Creek"
        ],
        "delegate": "Justin Ross",
        "open": false,
        "blurb": "South of MLK around Westerly Creek Greenway and Westerly Creek Elementary.",
        "source": "LOAD THIS EXACTLY.kmz",
        "labelLat": 39.7588711,
        "labelLng": -104.88868334958548
      },
      "geometry": {
        "type": "Polygon",
        "coordinates": [
          [
            [
              -104.9034004,
              39.761989
            ],
            [
              -104.9034903,
              39.7593392
            ],
            [
              -104.9005882,
              39.7593309
            ],
            [
              -104.9006043,
              39.7584113
            ],
            [
              -104.8988984,
              39.7583618
            ],
            [
              -104.898421,
              39.7581144
            ],
            [
              -104.8863939,
              39.7580814
            ],
            [
              -104.8864798,
              39.7542213
            ],
            [
              -104.8789506,
              39.7542199
            ],
            [
              -104.8791549,
              39.7547265
            ],
            [
              -104.8792434,
              39.7560688
            ],
            [
              -104.8772479,
              39.7579906
            ],
            [
              -104.8761589,
              39.7599989
            ],
            [
              -104.8764333,
              39.7601925
            ],
            [
              -104.8988995,
              39.7601925
            ],
            [
              -104.8989853,
              39.7633925
            ],
            [
              -104.9001736,
              39.7634083
            ],
            [
              -104.900285,
              39.7620059
            ],
            [
              -104.9010646,
              39.7617038
            ],
            [
              -104.9013615,
              39.7618388
            ],
            [
              -104.9026849,
              39.7620099
            ],
            [
              -104.9034004,
              39.761989
            ]
          ]
        ]
      }
    },
    {
      "type": "Feature",
      "properties": {
        "id": 4,
        "kmlName": "D. 4 - SOUTH END",
        "name": "South End",
        "color": "#E59B28",
        "neighborhoods": [
          "South End",
          "Greenway Park"
        ],
        "delegate": "Tom Reynolds",
        "open": false,
        "blurb": "Southern edge around Greenway Park down toward Montview.",
        "source": "LOAD THIS EXACTLY.kmz",
        "labelLat": 39.7511638,
        "labelLng": -104.8894033094204
      },
      "geometry": {
        "type": "Polygon",
        "coordinates": [
          [
            [
              -104.8966185,
              39.7523984
            ],
            [
              -104.8990218,
              39.7524396
            ],
            [
              -104.8988312,
              39.7517866
            ],
            [
              -104.8986917,
              39.7474394
            ],
            [
              -104.8801201,
              39.7474559
            ],
            [
              -104.8802274,
              39.7485201
            ],
            [
              -104.8803454,
              39.7495017
            ],
            [
              -104.8801952,
              39.750541
            ],
            [
              -104.879015,
              39.7542199
            ],
            [
              -104.8865442,
              39.7542213
            ],
            [
              -104.8922465,
              39.7543244
            ],
            [
              -104.8934482,
              39.7540728
            ],
            [
              -104.8950119,
              39.7530459
            ],
            [
              -104.8966185,
              39.7523984
            ]
          ]
        ]
      }
    },
    {
      "type": "Feature",
      "properties": {
        "id": 5,
        "kmlName": "D.5 - EAST BRIDGE",
        "name": "Eastbridge",
        "color": "#2E9AD6",
        "neighborhoods": [
          "Eastbridge"
        ],
        "delegate": "Andrew Bartlett",
        "open": false,
        "blurb": "East of Westerly Creek: Eastbridge Town Center and 26th Avenue Park.",
        "source": "LOAD THIS EXACTLY.kmz",
        "labelLat": 39.757029700000004,
        "labelLng": -104.87138023598388
      },
      "geometry": {
        "type": "Polygon",
        "coordinates": [
          [
            [
              -104.8792649,
              39.7560688
            ],
            [
              -104.8791764,
              39.7547265
            ],
            [
              -104.8705558,
              39.7546689
            ],
            [
              -104.8706255,
              39.7539184
            ],
            [
              -104.8587004,
              39.7540339
            ],
            [
              -104.8588062,
              39.7529085
            ],
            [
              -104.8574866,
              39.752892
            ],
            [
              -104.8562421,
              39.7532797
            ],
            [
              -104.8538817,
              39.7532384
            ],
            [
              -104.853871,
              39.7548633
            ],
            [
              -104.8644925,
              39.7547974
            ],
            [
              -104.864494,
              39.7588711
            ],
            [
              -104.8683966,
              39.7589432
            ],
            [
              -104.8688338,
              39.7591804
            ],
            [
              -104.8693622,
              39.7596732
            ],
            [
              -104.8701052,
              39.7599659
            ],
            [
              -104.8761804,
              39.7599989
            ],
            [
              -104.8772694,
              39.7579906
            ],
            [
              -104.8792649,
              39.7560688
            ]
          ]
        ]
      }
    },
    {
      "type": "Feature",
      "properties": {
        "id": 6,
        "kmlName": "D. 6 - CP  NORTH & CP WEST",
        "name": "CP North & CP West",
        "color": "#E6C61A",
        "neighborhoods": [
          "Central Park North",
          "Central Park West"
        ],
        "delegate": "Matt Blackburn",
        "open": false,
        "blurb": "Homes facing the 80-acre Central Park \u2014 west of the boulevard and north around Jet Stream.",
        "source": "LOAD THIS EXACTLY.kmz",
        "labelLat": 39.7663023,
        "labelLng": -104.88362512726536
      },
      "geometry": {
        "type": "Polygon",
        "coordinates": [
          [
            [
              -104.8767277,
              39.7692639
            ],
            [
              -104.8875269,
              39.7701383
            ],
            [
              -104.8896461,
              39.7695267
            ],
            [
              -104.8906331,
              39.7675641
            ],
            [
              -104.8905902,
              39.7650405
            ],
            [
              -104.8988351,
              39.7649759
            ],
            [
              -104.898921,
              39.7601925
            ],
            [
              -104.8764548,
              39.7601925
            ],
            [
              -104.8767277,
              39.7692639
            ]
          ]
        ]
      }
    },
    {
      "type": "Feature",
      "properties": {
        "id": 7,
        "kmlName": "D. 7 - CENTER FIELD",
        "name": "Center Field / RTD",
        "color": "#E85A45",
        "neighborhoods": [
          "Center Field",
          "Central Park Station"
        ],
        "delegate": null,
        "open": true,
        "blurb": "A-Line station area and the band just south of I-70.",
        "source": "LOAD THIS EXACTLY.kmz",
        "labelLat": 39.7729406,
        "labelLng": -104.88449951823739
      },
      "geometry": {
        "type": "Polygon",
        "coordinates": [
          [
            [
              -104.9032073,
              39.7772285
            ],
            [
              -104.9034004,
              39.7650075
            ],
            [
              -104.8906331,
              39.765024
            ],
            [
              -104.8906331,
              39.7675476
            ],
            [
              -104.889689,
              39.7695102
            ],
            [
              -104.8878865,
              39.770005
            ],
            [
              -104.8659568,
              39.7684877
            ],
            [
              -104.8655705,
              39.7758762
            ],
            [
              -104.8761398,
              39.7769527
            ],
            [
              -104.8814828,
              39.7781401
            ],
            [
              -104.8867921,
              39.7784982
            ],
            [
              -104.8895509,
              39.7785358
            ],
            [
              -104.8946792,
              39.7787832
            ],
            [
              -104.8969108,
              39.7794098
            ],
            [
              -104.9002032,
              39.7792073
            ],
            [
              -104.9014478,
              39.7784488
            ],
            [
              -104.9032073,
              39.7772285
            ]
          ]
        ]
      }
    },
    {
      "type": "Feature",
      "properties": {
        "id": 8,
        "kmlName": "D. 8 - CONSERVATORY GREEN",
        "name": "Conservatory Green",
        "color": "#7A6AD8",
        "neighborhoods": [
          "Conservatory Green"
        ],
        "delegate": "Sarah Stabio",
        "open": false,
        "blurb": "North of I-70 around Conservatory Green Plaza. The Cube is in this district.",
        "source": "LOAD THIS EXACTLY.kmz",
        "labelLat": 39.7856924,
        "labelLng": -104.88737555490863
      },
      "geometry": {
        "type": "Polygon",
        "coordinates": [
          [
            [
              -104.8973983,
              39.7934249
            ],
            [
              -104.8977477,
              39.7914633
            ],
            [
              -104.8979623,
              39.7869126
            ],
            [
              -104.8990137,
              39.7844722
            ],
            [
              -104.8991639,
              39.7814216
            ],
            [
              -104.8986275,
              39.7804817
            ],
            [
              -104.8969108,
              39.7794098
            ],
            [
              -104.8946792,
              39.7787832
            ],
            [
              -104.8895509,
              39.7785358
            ],
            [
              -104.887448,
              39.7785688
            ],
            [
              -104.885431,
              39.7784864
            ],
            [
              -104.8814828,
              39.7781401
            ],
            [
              -104.8780066,
              39.7774309
            ],
            [
              -104.8761398,
              39.7769527
            ],
            [
              -104.8763115,
              39.7891221
            ],
            [
              -104.8758333,
              39.790317
            ],
            [
              -104.8782044,
              39.7910919
            ],
            [
              -104.8792666,
              39.7912898
            ],
            [
              -104.8847492,
              39.7913352
            ],
            [
              -104.8858112,
              39.7915123
            ],
            [
              -104.8867982,
              39.7918421
            ],
            [
              -104.8875921,
              39.7922131
            ],
            [
              -104.8890298,
              39.7933177
            ],
            [
              -104.8899847,
              39.7937629
            ],
            [
              -104.891197,
              39.7941091
            ],
            [
              -104.8925274,
              39.7941421
            ],
            [
              -104.8938578,
              39.7939442
            ],
            [
              -104.8963149,
              39.793392
            ],
            [
              -104.8973983,
              39.7934249
            ]
          ]
        ]
      }
    },
    {
      "type": "Feature",
      "properties": {
        "id": 9,
        "kmlName": "D. 9 - WILLOW PARK EAST & WICKER PARK",
        "name": "Willow Park East & Wicker Park",
        "color": "#D18C1C",
        "neighborhoods": [
          "Willow Park East",
          "Wicker Park"
        ],
        "delegate": "Susanna Kantor",
        "open": false,
        "blurb": "Prairie Meadow, Willow Basin, and Wicker Park up to 56th Avenue.",
        "source": "LOAD THIS EXACTLY.kmz",
        "labelLat": 39.7962647,
        "labelLng": -104.88642552298725
      },
      "geometry": {
        "type": "Polygon",
        "coordinates": [
          [
            [
              -104.8754471,
              39.7984038
            ],
            [
              -104.8974198,
              39.7983873
            ],
            [
              -104.8973983,
              39.7934249
            ],
            [
              -104.8963898,
              39.7933837
            ],
            [
              -104.895274,
              39.7936062
            ],
            [
              -104.8938578,
              39.7939442
            ],
            [
              -104.8925274,
              39.7941421
            ],
            [
              -104.891197,
              39.7941091
            ],
            [
              -104.8899847,
              39.7937629
            ],
            [
              -104.8890298,
              39.7933177
            ],
            [
              -104.8875921,
              39.7922131
            ],
            [
              -104.8867982,
              39.7918421
            ],
            [
              -104.8858112,
              39.7915123
            ],
            [
              -104.8848456,
              39.791364
            ],
            [
              -104.8792666,
              39.7912898
            ],
            [
              -104.8782044,
              39.7910919
            ],
            [
              -104.8758333,
              39.790317
            ],
            [
              -104.8754256,
              39.7914959
            ],
            [
              -104.8754471,
              39.7984038
            ]
          ]
        ]
      }
    },
    {
      "type": "Feature",
      "properties": {
        "id": 10,
        "kmlName": "D. 10 - BEELER PARK",
        "name": "Beeler Park",
        "color": "#1BB3AE",
        "neighborhoods": [
          "Beeler Park"
        ],
        "delegate": "Joseph Landen",
        "open": false,
        "blurb": "North of 56th around Beeler Park & Plaza.",
        "source": "LOAD THIS EXACTLY.kmz",
        "labelLat": 39.804585700000004,
        "labelLng": -104.88028399268887
      },
      "geometry": {
        "type": "Polygon",
        "coordinates": [
          [
            [
              -104.8845523,
              39.8094584
            ],
            [
              -104.8846608,
              39.7983247
            ],
            [
              -104.8767611,
              39.7983692
            ],
            [
              -104.876745,
              39.8008791
            ],
            [
              -104.8757955,
              39.8033395
            ],
            [
              -104.8761409,
              39.8058319
            ],
            [
              -104.8779005,
              39.8085971
            ],
            [
              -104.8800033,
              39.8099529
            ],
            [
              -104.8828143,
              39.8100106
            ],
            [
              -104.8845523,
              39.8094584
            ]
          ]
        ]
      }
    },
    {
      "type": "Feature",
      "properties": {
        "id": 11,
        "kmlName": "D. 11 - NORTH END",
        "name": "North End Neighborhood",
        "color": "#EE5AA0",
        "neighborhoods": [
          "North End"
        ],
        "delegate": null,
        "open": true,
        "blurb": "Northernmost neighborhood along 64th Avenue and the wildlife refuge.",
        "source": "LOAD THIS EXACTLY.kmz",
        "labelLat": 39.804585700000004,
        "labelLng": -104.87093799989668
      },
      "geometry": {
        "type": "Polygon",
        "coordinates": [
          [
            [
              -104.8845523,
              39.8094584
            ],
            [
              -104.8828143,
              39.8100106
            ],
            [
              -104.8800033,
              39.8099529
            ],
            [
              -104.8779005,
              39.8085971
            ],
            [
              -104.8761409,
              39.8058319
            ],
            [
              -104.8757955,
              39.8033395
            ],
            [
              -104.876745,
              39.8008791
            ],
            [
              -104.8767611,
              39.7983692
            ],
            [
              -104.8658445,
              39.7984063
            ],
            [
              -104.8659947,
              39.813069
            ],
            [
              -104.8845878,
              39.8129453
            ],
            [
              -104.8845523,
              39.8094584
            ]
          ]
        ]
      }
    }
  ]
}
